{
  "type": "FeatureCollection",
  "features": [
    {
      "type": "Feature",
      "properties": {
        "norad_id": 36691,
        "name": "FENGYUN 1C DEB",
        "group": "fengyun-1c-debris",
        "lat": -12.186505072023586,
        "lon": -14.603212508466717,
        "alt_km": 892.5228161548202,
        "timestamp": "2025-12-09T05:43:21.014906+00:00",
        "meta_object_name": "FENGYUN 1C DEB",
        "meta_object_id": "1999-025DZM",
        "meta_epoch": "2025-12-08T17:50:07.073088",
        "meta_mean_motion": 14.07105067,
        "meta_eccentricity": 0.012908,
        "meta_inclination": 98.6374,
        "meta_ra_of_asc_node": 343.0423,
        "meta_arg_of_pericenter": 246.8073,
        "meta_mean_anomaly": 111.9457,
        "meta_ephemeris_type": 0,
        "meta_classification_type": "U",
        "meta_norad_cat_id": 36691,
        "meta_element_set_no": 999,
        "meta_rev_at_epoch": 59553,
        "meta_bstar": 0.0032099,
        "meta_mean_motion_dot": 5.753e-05,
        "meta_mean_motion_ddot": 0,
        "tle_line1": "1 36691U 99025DZM 25342.74313742  .00005753  00000+0  32099-2 0  9991",
        "tle_line2": "2 36691  98.6374 343.0423 0129080 246.8073 111.9457 14.07105067595539"
      },
      "geometry": {
        "type": "Point",
        "coordinates": [
          -14.603212508466717,
          -12.186505072023586
        ]
      }
    },
    {
      "type": "Feature",
      "properties": {
        "norad_id": 36692,
        "name": "FENGYUN 1C DEB",
        "group": "fengyun-1c-debris",
        "lat": 18.359926918963644,
        "lon": 72.38158080444992,
        "alt_km": 979.8896825989459,
        "timestamp": "2025-12-09T05:43:21.014916+00:00",
        "meta_object_name": "FENGYUN 1C DEB",
        "meta_object_id": "1999-025DZN",
        "meta_epoch": "2025-12-04T12:56:52.897632",
        "meta_mean_motion": 13.93448865,
        "meta_eccentricity": 0.0115856,
        "meta_inclination": 99.9932,
        "meta_ra_of_asc_node": 243.9547,
        "meta_arg_of_pericenter": 34.8482,
        "meta_mean_anomaly": 326.0192,
        "meta_ephemeris_type": 0,
        "meta_classification_type": "U",
        "meta_norad_cat_id": 36692,
        "meta_element_set_no": 999,
        "meta_rev_at_epoch": 59691,
        "meta_bstar": 0.0009556,
        "meta_mean_motion_dot": 1.272e-05,
        "meta_mean_motion_ddot": 0,
        "tle_line1": "1 36692U 99025DZN 25338.53950113  .00001272  00000+0  95560-3 0  9998",
        "tle_line2": "2 36692  99.9932 243.9547 0115856  34.8482 326.0192 13.93448865596912"
      },
      "geometry": {
        "type": "Point",
        "coordinates": [
          72.38158080444992,
          18.359926918963644
        ]
      }
    },
    {
      "type": "Feature",
      "properties": {
        "norad_id": 36695,
        "name": "FENGYUN 1C DEB",
        "group": "fengyun-1c-debris",
        "lat": 53.195214625965,
        "lon": 155.82812390885763,
        "alt_km": 564.0379503950562,
        "timestamp": "2025-12-09T05:43:21.014927+00:00",
        "meta_object_name": "FENGYUN 1C DEB",
        "meta_object_id": "1999-025DZR",
        "meta_epoch": "2025-12-07T16:33:08.644032",
        "meta_mean_motion": 14.43734383,
        "meta_eccentricity": 0.02568321,
        "meta_inclination": 98.2205,
        "meta_ra_of_asc_node": 323.1905,
        "meta_arg_of_pericenter": 145.5781,
        "meta_mean_anomaly": 216.2351,
        "meta_ephemeris_type": 0,
        "meta_classification_type": "U",
        "meta_norad_cat_id": 36695,
        "meta_element_set_no": 999,
        "meta_rev_at_epoch": 89495,
        "meta_bstar": 0.00027696814,
        "meta_mean_motion_dot": 1.356e-05,
        "meta_mean_motion_ddot": 0,
        "tle_line1": "1 36695U 99025DZR 25341.68968338  .00001356  00000+0  27697-3 0  9998",
        "tle_line2": "2 36695  98.2205 323.1905 0256832 145.5781 216.2351 14.43734383894952"
      },
      "geometry": {
        "type": "Point",
        "coordinates": [
          155.82812390885763,
          53.195214625965
        ]
      }
    },
    {
      "type": "Feature",
      "properties": {
        "norad_id": 36696,
        "name": "FENGYUN 1C DEB",
        "group": "fengyun-1c-debris",
        "lat": 70.35398446616914,
        "lon": -34.26851768003786,
        "alt_km": 755.2071374620455,
        "timestamp": "2025-12-09T05:43:21.014937+00:00",
        "meta_object_name": "FENGYUN 1C DEB",
        "meta_object_id": "1999-025DZS",
        "meta_epoch": "2025-12-07T18:20:48.028992",
        "meta_mean_motion": 14.39107537,
        "meta_eccentricity": 0.00230373,
        "meta_inclination": 98.9922,
        "meta_ra_of_asc_node": 350.5184,
        "meta_arg_of_pericenter": 344.2402,
        "meta_mean_anomaly": 15.8065,
        "meta_ephemeris_type": 0,
        "meta_classification_type": "U",
        "meta_norad_cat_id": 36696,
        "meta_element_set_no": 999,
        "meta_rev_at_epoch": 64324,
        "meta_bstar": 0.0034892899,
        "meta_mean_motion_dot": 0.00010794,
        "meta_mean_motion_ddot": 0,
        "tle_line1": "1 36696U 99025DZS 25341.76444478  .00010794  00000+0  34893-2 0  9993",
        "tle_line2": "2 36696  98.9922 350.5184 0023037 344.2402  15.8065 14.39107537643245"
      },
      "geometry": {
        "type": "Point",
        "coordinates": [
          -34.26851768003786,
          70.35398446616914
        ]
      }
    },
    {
      "type": "Feature",
      "properties": {
        "norad_id": 36699,
        "name": "FENGYUN 1C DEB",
        "group": "fengyun-1c-debris",
        "lat": -63.64262560982361,
        "lon": -4.474087983442312,
        "alt_km": 879.4260010940679,
        "timestamp": "2025-12-09T05:43:21.014954+00:00",
        "meta_object_name": "FENGYUN 1C DEB",
        "meta_object_id": "1999-025DZV",
        "meta_epoch": "2025-12-08T06:25:41.496960",
        "meta_mean_motion": 14.24286073,
        "meta_eccentricity": 0.00944856,
        "meta_inclination": 98.5588,
        "meta_ra_of_asc_node": 336.8859,
        "meta_arg_of_pericenter": 143.0891,
        "meta_mean_anomaly": 217.684,
        "meta_ephemeris_type": 0,
        "meta_classification_type": "U",
        "meta_norad_cat_id": 36699,
        "meta_element_set_no": 999,
        "meta_rev_at_epoch": 73263,
        "meta_bstar": 0.00040885674,
        "meta_mean_motion_dot": 9.47e-06,
        "meta_mean_motion_ddot": 0,
        "tle_line1": "1 36699U 99025DZV 25342.26784140  .00000947  00000+0  40886-3 0  9994",
        "tle_line2": "2 36699  98.5588 336.8859 0094485 143.0891 217.6840 14.24286073732632"
      },
      "geometry": {
        "type": "Point",
        "coordinates": [
          -4.474087983442312,
          -63.64262560982361
        ]
      }
    },
    {
      "type": "Feature",
      "properties": {
        "norad_id": 36701,
        "name": "FENGYUN 1C DEB",
        "group": "fengyun-1c-debris",
        "lat": -13.16686524996696,
        "lon": 113.4079798899888,
        "alt_km": 923.1380517932284,
        "timestamp": "2025-12-09T05:43:21.014964+00:00",
        "meta_object_name": "FENGYUN 1C DEB",
        "meta_object_id": "1999-025DZX",
        "meta_epoch": "2025-12-07T03:43:38.012448",
        "meta_mean_motion": 13.71286226,
        "meta_eccentricity": 0.02604963,
        "meta_inclination": 102.7467,
        "meta_ra_of_asc_node": 293.6859,
        "meta_arg_of_pericenter": 266.1948,
        "meta_mean_anomaly": 90.9369,
        "meta_ephemeris_type": 0,
        "meta_classification_type": "U",
        "meta_norad_cat_id": 36701,
        "meta_element_set_no": 999,
        "meta_rev_at_epoch": 61062,
        "meta_bstar": 0.0038732005,
        "meta_mean_motion_dot": 4.354e-05,
        "meta_mean_motion_ddot": 0,
        "tle_line1": "1 36701U 99025DZX 25341.15530107  .00004354  00000+0  38732-2 0  9999",
        "tle_line2": "2 36701 102.7467 293.6859 0260496 266.1948  90.9369 13.71286226610620"
      },
      "geometry": {
        "type": "Point",
        "coordinates": [
          113.4079798899888,
          -13.16686524996696
        ]
      }
    },
    {
      "type": "Feature",
      "properties": {
        "norad_id": 36707,
        "name": "FENGYUN 1C DEB",
        "group": "fengyun-1c-debris",
        "lat": -81.24085847323246,
        "lon": 120.34703553820151,
        "alt_km": 868.7110633912707,
        "timestamp": "2025-12-09T05:43:21.014974+00:00",
        "meta_object_name": "FENGYUN 1C DEB",
        "meta_object_id": "1999-025EAD",
        "meta_epoch": "2025-12-06T20:32:37.753728",
        "meta_mean_motion": 14.17281084,
        "meta_eccentricity": 0.00499791,
        "meta_inclination": 98.7525,
        "meta_ra_of_asc_node": 27.0595,
        "meta_arg_of_pericenter": 138.3095,
        "meta_mean_anomaly": 222.1906,
        "meta_ephemeris_type": 0,
        "meta_classification_type": "U",
        "meta_norad_cat_id": 36707,
        "meta_element_set_no": 999,
        "meta_rev_at_epoch": 63996,
        "meta_bstar": 0.0013920761,
        "meta_mean_motion_dot": 2.804e-05,
        "meta_mean_motion_ddot": 0,
        "tle_line1": "1 36707U 99025EAD 25340.85599252  .00002804  00000+0  13921-2 0  9998",
        "tle_line2": "2 36707  98.7525  27.0595 0049979 138.3095 222.1906 14.17281084639967"
      },
      "geometry": {
        "type": "Point",
        "coordinates": [
          120.34703553820151,
          -81.24085847323246
        ]
      }
    }
  ]
}